O3B MPOWER F1           
1 54755U 22174A   24071.03322275 -.00000020  00000+0  00000+0 0  9991
2 54755   0.0645   6.4447 0006478 352.0328  69.9606  5.00118341 23910
